<?xml version="1.0" encoding="UTF-8"?>
<ndm xmlns:xsi="http://www.w3.org/2001/XMLSchema-instance" xsi:noNamespaceSchemaLocation="https://sanaregistry.org/r/ndmxml_unqualified/ndmxml-2.0.0-master-2.0.xsd">
<omm id="CCSDS_OMM_VERS" version="2.0">
<header><CREATION_DATE/><ORIGINATOR/></header><body><segment><metadata><OBJECT_NAME>ONEWEB-0425</OBJECT_NAME><OBJECT_ID>2022-012G</OBJECT_ID><CENTER_NAME>EARTH</CENTER_NAME><REF_FRAME>TEME</REF_FRAME><TIME_SYSTEM>UTC</TIME_SYSTEM><MEAN_ELEMENT_THEORY>SGP4</MEAN_ELEMENT_THEORY></metadata><data><meanElements><EPOCH>2025-01-11T21:23:31.047648</EPOCH><MEAN_MOTION>13.10371230</MEAN_MOTION><ECCENTRICITY>.0001498</ECCENTRICITY><INCLINATION>87.8913</INCLINATION><RA_OF_ASC_NODE>140.1125</RA_OF_ASC_NODE><ARG_OF_PERICENTER>93.6833</ARG_OF_PERICENTER><MEAN_ANOMALY>266.4465</MEAN_ANOMALY></meanElements><tleParameters><EPHEMERIS_TYPE>0</EPHEMERIS_TYPE><CLASSIFICATION_TYPE>U</CLASSIFICATION_TYPE><NORAD_CAT_ID>51628</NORAD_CAT_ID><ELEMENT_SET_NO>999</ELEMENT_SET_NO><REV_AT_EPOCH>14105</REV_AT_EPOCH><BSTAR>.60607E-3</BSTAR><MEAN_MOTION_DOT>.224E-5</MEAN_MOTION_DOT><MEAN_MOTION_DDOT>0</MEAN_MOTION_DDOT></tleParameters></data></segment></body></omm>
<omm id="CCSDS_OMM_VERS" version="2.0">
<header><CREATION_DATE/><ORIGINATOR/></header><body><segment><metadata><OBJECT_NAME>ONEWEB-0428</OBJECT_NAME><OBJECT_ID>2022-012H</OBJECT_ID><CENTER_NAME>EARTH</CENTER_NAME><REF_FRAME>TEME</REF_FRAME><TIME_SYSTEM>UTC</TIME_SYSTEM><MEAN_ELEMENT_THEORY>SGP4</MEAN_ELEMENT_THEORY></metadata><data><meanElements><EPOCH>2025-01-11T20:54:49.524192</EPOCH><MEAN_MOTION>13.10374418</MEAN_MOTION><ECCENTRICITY>.0001531</ECCENTRICITY><INCLINATION>87.8917</INCLINATION><RA_OF_ASC_NODE>140.1355</RA_OF_ASC_NODE><ARG_OF_PERICENTER>114.4451</ARG_OF_PERICENTER><MEAN_ANOMALY>245.6836</MEAN_ANOMALY></meanElements><tleParameters><EPHEMERIS_TYPE>0</EPHEMERIS_TYPE><CLASSIFICATION_TYPE>U</CLASSIFICATION_TYPE><NORAD_CAT_ID>51629</NORAD_CAT_ID><ELEMENT_SET_NO>999</ELEMENT_SET_NO><REV_AT_EPOCH>14101</REV_AT_EPOCH><BSTAR>.87624E-3</BSTAR><MEAN_MOTION_DOT>.319E-5</MEAN_MOTION_DOT><MEAN_MOTION_DDOT>0</MEAN_MOTION_DDOT></tleParameters></data></segment></body></omm>
<omm id="CCSDS_OMM_VERS" version="2.0">
<header><CREATION_DATE/><ORIGINATOR/></header><body><segment><metadata><OBJECT_NAME>ONEWEB-0431</OBJECT_NAME><OBJECT_ID>2022-012J</OBJECT_ID><CENTER_NAME>EARTH</CENTER_NAME><REF_FRAME>TEME</REF_FRAME><TIME_SYSTEM>UTC</TIME_SYSTEM><MEAN_ELEMENT_THEORY>SGP4</MEAN_ELEMENT_THEORY></metadata><data><meanElements><EPOCH>2025-01-11T20:11:34.945152</EPOCH><MEAN_MOTION>13.10372784</MEAN_MOTION><ECCENTRICITY>.0001845</ECCENTRICITY><INCLINATION>87.8910</INCLINATION><RA_OF_ASC_NODE>140.1247</RA_OF_ASC_NODE><ARG_OF_PERICENTER>124.8399</ARG_OF_PERICENTER><MEAN_ANOMALY>235.2902</MEAN_ANOMALY></meanElements><tleParameters><EPHEMERIS_TYPE>0</EPHEMERIS_TYPE><CLASSIFICATION_TYPE>U</CLASSIFICATION_TYPE><NORAD_CAT_ID>51630</NORAD_CAT_ID><ELEMENT_SET_NO>999</ELEMENT_SET_NO><REV_AT_EPOCH>14106</REV_AT_EPOCH><BSTAR>-.18655E-2</BSTAR><MEAN_MOTION_DOT>-.639E-5</MEAN_MOTION_DOT><MEAN_MOTION_DDOT>0</MEAN_MOTION_DDOT></tleParameters></data></segment></body></omm>
<omm id="CCSDS_OMM_VERS" version="2.0">
<header><CREATION_DATE/><ORIGINATOR/></header><body><segment><metadata><OBJECT_NAME>ONEWEB-0434</OBJECT_NAME><OBJECT_ID>2022-012K</OBJECT_ID><CENTER_NAME>EARTH</CENTER_NAME><REF_FRAME>TEME</REF_FRAME><TIME_SYSTEM>UTC</TIME_SYSTEM><MEAN_ELEMENT_THEORY>SGP4</MEAN_ELEMENT_THEORY></metadata><data><meanElements><EPOCH>2025-01-11T21:28:17.833440</EPOCH><MEAN_MOTION>13.10368827</MEAN_MOTION><ECCENTRICITY>.0001478</ECCENTRICITY><INCLINATION>87.8915</INCLINATION><RA_OF_ASC_NODE>140.1432</RA_OF_ASC_NODE><ARG_OF_PERICENTER>79.1067</ARG_OF_PERICENTER><MEAN_ANOMALY>281.0226</MEAN_ANOMALY></meanElements><tleParameters><EPHEMERIS_TYPE>0</EPHEMERIS_TYPE><CLASSIFICATION_TYPE>U</CLASSIFICATION_TYPE><NORAD_CAT_ID>51631</NORAD_CAT_ID><ELEMENT_SET_NO>999</ELEMENT_SET_NO><REV_AT_EPOCH>14105</REV_AT_EPOCH><BSTAR>.17339E-3</BSTAR><MEAN_MOTION_DOT>.73E-6</MEAN_MOTION_DOT><MEAN_MOTION_DDOT>0</MEAN_MOTION_DDOT></tleParameters></data></segment></body></omm>
<omm id="CCSDS_OMM_VERS" version="2.0">
<header><CREATION_DATE/><ORIGINATOR/></header><body><segment><metadata><OBJECT_NAME>ONEWEB-0435</OBJECT_NAME><OBJECT_ID>2022-012L</OBJECT_ID><CENTER_NAME>EARTH</CENTER_NAME><REF_FRAME>TEME</REF_FRAME><TIME_SYSTEM>UTC</TIME_SYSTEM><MEAN_ELEMENT_THEORY>SGP4</MEAN_ELEMENT_THEORY></metadata><data><meanElements><EPOCH>2025-01-11T21:40:14.034144</EPOCH><MEAN_MOTION>13.10369582</MEAN_MOTION><ECCENTRICITY>.0001276</ECCENTRICITY><INCLINATION>87.8916</INCLINATION><RA_OF_ASC_NODE>140.1338</RA_OF_ASC_NODE><ARG_OF_PERICENTER>120.8607</ARG_OF_PERICENTER><MEAN_ANOMALY>239.2646</MEAN_ANOMALY></meanElements><tleParameters><EPHEMERIS_TYPE>0</EPHEMERIS_TYPE><CLASSIFICATION_TYPE>U</CLASSIFICATION_TYPE><NORAD_CAT_ID>51632</NORAD_CAT_ID><ELEMENT_SET_NO>999</ELEMENT_SET_NO><REV_AT_EPOCH>14104</REV_AT_EPOCH><BSTAR>-.10644E-2</BSTAR><MEAN_MOTION_DOT>-.359E-5</MEAN_MOTION_DOT><MEAN_MOTION_DDOT>0</MEAN_MOTION_DDOT></tleParameters></data></segment></body></omm>
<omm id="CCSDS_OMM_VERS" version="2.0">
<header><CREATION_DATE/><ORIGINATOR/></header><body><segment><metadata><OBJECT_NAME>ONEWEB-0436</OBJECT_NAME><OBJECT_ID>2022-012M</OBJECT_ID><CENTER_NAME>EARTH</CENTER_NAME><REF_FRAME>TEME</REF_FRAME><TIME_SYSTEM>UTC</TIME_SYSTEM><MEAN_ELEMENT_THEORY>SGP4</MEAN_ELEMENT_THEORY></metadata><data><meanElements><EPOCH>2025-01-11T18:12:16.728480</EPOCH><MEAN_MOTION>13.17647936</MEAN_MOTION><ECCENTRICITY>.0001679</ECCENTRICITY><INCLINATION>87.9097</INCLINATION><RA_OF_ASC_NODE>109.7341</RA_OF_ASC_NODE><ARG_OF_PERICENTER>115.6061</ARG_OF_PERICENTER><MEAN_ANOMALY>244.5244</MEAN_ANOMALY></meanElements><tleParameters><EPHEMERIS_TYPE>0</EPHEMERIS_TYPE><CLASSIFICATION_TYPE>U</CLASSIFICATION_TYPE><NORAD_CAT_ID>51633</NORAD_CAT_ID><ELEMENT_SET_NO>999</ELEMENT_SET_NO><REV_AT_EPOCH>14501</REV_AT_EPOCH><BSTAR>.20708E-4</BSTAR><MEAN_MOTION_DOT>.21E-6</MEAN_MOTION_DOT><MEAN_MOTION_DDOT>0</MEAN_MOTION_DDOT></tleParameters></data></segment></body></omm>
<omm id="CCSDS_OMM_VERS" version="2.0">
<header><CREATION_DATE/><ORIGINATOR/></header><body><segment><metadata><OBJECT_NAME>ONEWEB-0438</OBJECT_NAME><OBJECT_ID>2022-012N</OBJECT_ID><CENTER_NAME>EARTH</CENTER_NAME><REF_FRAME>TEME</REF_FRAME><TIME_SYSTEM>UTC</TIME_SYSTEM><MEAN_ELEMENT_THEORY>SGP4</MEAN_ELEMENT_THEORY></metadata><data><meanElements><EPOCH>2025-01-11T21:16:21.388224</EPOCH><MEAN_MOTION>13.10374060</MEAN_MOTION><ECCENTRICITY>.0001528</ECCENTRICITY><INCLINATION>87.8916</INCLINATION><RA_OF_ASC_NODE>140.1374</RA_OF_ASC_NODE><ARG_OF_PERICENTER>98.4753</ARG_OF_PERICENTER><MEAN_ANOMALY>261.6548</MEAN_ANOMALY></meanElements><tleParameters><EPHEMERIS_TYPE>0</EPHEMERIS_TYPE><CLASSIFICATION_TYPE>U</CLASSIFICATION_TYPE><NORAD_CAT_ID>51634</NORAD_CAT_ID><ELEMENT_SET_NO>999</ELEMENT_SET_NO><REV_AT_EPOCH>14107</REV_AT_EPOCH><BSTAR>.13463E-2</BSTAR><MEAN_MOTION_DOT>.483E-5</MEAN_MOTION_DOT><MEAN_MOTION_DDOT>0</MEAN_MOTION_DDOT></tleParameters></data></segment></body></omm>
<omm id="CCSDS_OMM_VERS" version="2.0">
<header><CREATION_DATE/><ORIGINATOR/></header><body><segment><metadata><OBJECT_NAME>ONEWEB-0439</OBJECT_NAME><OBJECT_ID>2022-012P</OBJECT_ID><CENTER_NAME>EARTH</CENTER_NAME><REF_FRAME>TEME</REF_FRAME><TIME_SYSTEM>UTC</TIME_SYSTEM><MEAN_ELEMENT_THEORY>SGP4</MEAN_ELEMENT_THEORY></metadata><data><meanElements><EPOCH>2025-01-12T01:01:02.613504</EPOCH><MEAN_MOTION>13.10370309</MEAN_MOTION><ECCENTRICITY>.0001501</ECCENTRICITY><INCLINATION>87.8917</INCLINATION><RA_OF_ASC_NODE>140.0932</RA_OF_ASC_NODE><ARG_OF_PERICENTER>105.8918</ARG_OF_PERICENTER><MEAN_ANOMALY>254.2375</MEAN_ANOMALY></meanElements><tleParameters><EPHEMERIS_TYPE>0</EPHEMERIS_TYPE><CLASSIFICATION_TYPE>U</CLASSIFICATION_TYPE><NORAD_CAT_ID>51635</NORAD_CAT_ID><ELEMENT_SET_NO>999</ELEMENT_SET_NO><REV_AT_EPOCH>14235</REV_AT_EPOCH><BSTAR>.96374E-3</BSTAR><MEAN_MOTION_DOT>.349E-5</MEAN_MOTION_DOT><MEAN_MOTION_DDOT>0</MEAN_MOTION_DDOT></tleParameters></data></segment></body></omm>
<omm id="CCSDS_OMM_VERS" version="2.0">
<header><CREATION_DATE/><ORIGINATOR/></header><body><segment><metadata><OBJECT_NAME>ONEWEB-0442</OBJECT_NAME><OBJECT_ID>2022-012Q</OBJECT_ID><CENTER_NAME>EARTH</CENTER_NAME><REF_FRAME>TEME</REF_FRAME><TIME_SYSTEM>UTC</TIME_SYSTEM><MEAN_ELEMENT_THEORY>SGP4</MEAN_ELEMENT_THEORY></metadata><data><meanElements><EPOCH>2025-01-11T18:01:21.228096</EPOCH><MEAN_MOTION>13.17648665</MEAN_MOTION><ECCENTRICITY>.0002147</ECCENTRICITY><INCLINATION>87.9101</INCLINATION><RA_OF_ASC_NODE>109.7777</RA_OF_ASC_NODE><ARG_OF_PERICENTER>89.0069</ARG_OF_PERICENTER><MEAN_ANOMALY>271.1309</MEAN_ANOMALY></meanElements><tleParameters><EPHEMERIS_TYPE>0</EPHEMERIS_TYPE><CLASSIFICATION_TYPE>U</CLASSIFICATION_TYPE><NORAD_CAT_ID>51636</NORAD_CAT_ID><ELEMENT_SET_NO>999</ELEMENT_SET_NO><REV_AT_EPOCH>14500</REV_AT_EPOCH><BSTAR>-.91577E-3</BSTAR><MEAN_MOTION_DOT>-.343E-5</MEAN_MOTION_DOT><MEAN_MOTION_DDOT>0</MEAN_MOTION_DDOT></tleParameters></data></segment></body></omm>

</ndm>
